CCSDS_OMM_VERS = 2.0
CREATION_DATE  = 
ORIGINATOR     = 

OBJECT_NAME    = STARLINK-36472
OBJECT_ID      = 2026-003N
CENTER_NAME    = EARTH
REF_FRAME      = TEME
TIME_SYSTEM    = UTC
MEAN_ELEMENT_THEORY = SGP/SGP4

EPOCH          = 2026-02-07T20:00:03.000384
MEAN_MOTION    = 15.42460730
ECCENTRICITY   = .0001292
INCLINATION    = 43.0003
RA_OF_ASC_NODE = 36.1749
ARG_OF_PERICENTER = 255.3398
MEAN_ANOMALY   = 47.6237

EPHEMERIS_TYPE = 0
CLASSIFICATION_TYPE = U
NORAD_CAT_ID   = 67346
ELEMENT_SET_NO = 999
REV_AT_EPOCH   = 586
BSTAR          = -.50773E-1
MEAN_MOTION_DOT = -.2003755E-1
MEAN_MOTION_DDOT = 0

CCSDS_OMM_VERS = 2.0
CREATION_DATE  = 
ORIGINATOR     = 

OBJECT_NAME    = STARLINK-36420
OBJECT_ID      = 2026-003P
CENTER_NAME    = EARTH
REF_FRAME      = TEME
TIME_SYSTEM    = UTC
MEAN_ELEMENT_THEORY = SGP/SGP4

EPOCH          = 2026-02-07T20:00:03.000384
MEAN_MOTION    = 15.45784937
ECCENTRICITY   = .0001167
INCLINATION    = 43.0003
RA_OF_ASC_NODE = 36.1221
ARG_OF_PERICENTER = 253.0934
MEAN_ANOMALY   = 70.7786

EPHEMERIS_TYPE = 0
CLASSIFICATION_TYPE = U
NORAD_CAT_ID   = 67347
ELEMENT_SET_NO = 999
REV_AT_EPOCH   = 587
BSTAR          = -.45557E-1
MEAN_MOTION_DOT = -.2013811E-1
MEAN_MOTION_DDOT = 0

CCSDS_OMM_VERS = 2.0
CREATION_DATE  = 
ORIGINATOR     = 

OBJECT_NAME    = STARLINK-36467
OBJECT_ID      = 2026-003Q
CENTER_NAME    = EARTH
REF_FRAME      = TEME
TIME_SYSTEM    = UTC
MEAN_ELEMENT_THEORY = SGP/SGP4

EPOCH          = 2026-02-07T10:52:34.124736
MEAN_MOTION    = 15.47138488
ECCENTRICITY   = .0002809
INCLINATION    = 42.9984
RA_OF_ASC_NODE = 38.3416
ARG_OF_PERICENTER = 227.4154
MEAN_ANOMALY   = 132.6468

EPHEMERIS_TYPE = 0
CLASSIFICATION_TYPE = U
NORAD_CAT_ID   = 67348
ELEMENT_SET_NO = 999
REV_AT_EPOCH   = 419
BSTAR          = -.77985E-2
MEAN_MOTION_DOT = -.386258E-2
MEAN_MOTION_DDOT = 0

CCSDS_OMM_VERS = 2.0
CREATION_DATE  = 
ORIGINATOR     = 

OBJECT_NAME    = STARLINK-36457
OBJECT_ID      = 2026-003R
CENTER_NAME    = EARTH
REF_FRAME      = TEME
TIME_SYSTEM    = UTC
MEAN_ELEMENT_THEORY = SGP/SGP4

EPOCH          = 2026-02-07T20:00:03.000384
MEAN_MOTION    = 15.48878550
ECCENTRICITY   = .000158
INCLINATION    = 43.0002
RA_OF_ASC_NODE = 36.0975
ARG_OF_PERICENTER = 267.4866
MEAN_ANOMALY   = 66.2526

EPHEMERIS_TYPE = 0
CLASSIFICATION_TYPE = U
NORAD_CAT_ID   = 67349
ELEMENT_SET_NO = 999
REV_AT_EPOCH   = 587
BSTAR          = -.41409E-1
MEAN_MOTION_DOT = -.203777E-1
MEAN_MOTION_DDOT = 0

CCSDS_OMM_VERS = 2.0
CREATION_DATE  = 
ORIGINATOR     = 

OBJECT_NAME    = STARLINK-36475
OBJECT_ID      = 2026-003S
CENTER_NAME    = EARTH
REF_FRAME      = TEME
TIME_SYSTEM    = UTC
MEAN_ELEMENT_THEORY = SGP/SGP4

EPOCH          = 2026-02-07T09:16:45.548256
MEAN_MOTION    = 15.50601894
ECCENTRICITY   = .000097
INCLINATION    = 42.9966
RA_OF_ASC_NODE = 38.7032
ARG_OF_PERICENTER = 49.7663
MEAN_ANOMALY   = 310.3281

EPHEMERIS_TYPE = 0
CLASSIFICATION_TYPE = U
NORAD_CAT_ID   = 67350
ELEMENT_SET_NO = 999
REV_AT_EPOCH   = 418
BSTAR          = .15453E-2
MEAN_MOTION_DOT = .91452E-3
MEAN_MOTION_DDOT = 0

CCSDS_OMM_VERS = 2.0
CREATION_DATE  = 
ORIGINATOR     = 

OBJECT_NAME    = STARLINK-36478
OBJECT_ID      = 2026-003T
CENTER_NAME    = EARTH
REF_FRAME      = TEME
TIME_SYSTEM    = UTC
MEAN_ELEMENT_THEORY = SGP/SGP4

EPOCH          = 2026-02-07T09:16:15.148416
MEAN_MOTION    = 15.50665364
ECCENTRICITY   = .00020951
INCLINATION    = 43.0016
RA_OF_ASC_NODE = 38.7006
ARG_OF_PERICENTER = 268.1137
MEAN_ANOMALY   = 91.9483

EPHEMERIS_TYPE = 0
CLASSIFICATION_TYPE = U
NORAD_CAT_ID   = 67351
ELEMENT_SET_NO = 999
REV_AT_EPOCH   = 418
BSTAR          = .29197862E-2
MEAN_MOTION_DOT = .175381E-2
MEAN_MOTION_DDOT = 0

CCSDS_OMM_VERS = 2.0
CREATION_DATE  = 
ORIGINATOR     = 

OBJECT_NAME    = STARLINK-36479
OBJECT_ID      = 2026-003U
CENTER_NAME    = EARTH
REF_FRAME      = TEME
TIME_SYSTEM    = UTC
MEAN_ELEMENT_THEORY = SGP/SGP4

EPOCH          = 2026-02-07T20:00:03.000384
MEAN_MOTION    = 15.50681872
ECCENTRICITY   = .0001615
INCLINATION    = 43.0001
RA_OF_ASC_NODE = 36.0809
ARG_OF_PERICENTER = 244.5666
MEAN_ANOMALY   = 95.9772

EPHEMERIS_TYPE = 0
CLASSIFICATION_TYPE = U
NORAD_CAT_ID   = 67352
ELEMENT_SET_NO = 999
REV_AT_EPOCH   = 587
BSTAR          = -.29387E-2
MEAN_MOTION_DOT = -.169681E-2
MEAN_MOTION_DDOT = 0

CCSDS_OMM_VERS = 2.0
CREATION_DATE  = 
ORIGINATOR     = 

OBJECT_NAME    = STARLINK-36474
OBJECT_ID      = 2026-003V
CENTER_NAME    = EARTH
REF_FRAME      = TEME
TIME_SYSTEM    = UTC
MEAN_ELEMENT_THEORY = SGP/SGP4

EPOCH          = 2026-02-07T20:00:03.000384
MEAN_MOTION    = 15.38949779
ECCENTRICITY   = .0000988
INCLINATION    = 43.0003
RA_OF_ASC_NODE = 36.2075
ARG_OF_PERICENTER = 264.4708
MEAN_ANOMALY   = 24.1786

EPHEMERIS_TYPE = 0
CLASSIFICATION_TYPE = U
NORAD_CAT_ID   = 67353
ELEMENT_SET_NO = 999
REV_AT_EPOCH   = 587
BSTAR          = -.56947E-1
MEAN_MOTION_DOT = -.1998398E-1
MEAN_MOTION_DDOT = 0

CCSDS_OMM_VERS = 2.0
CREATION_DATE  = 
ORIGINATOR     = 

OBJECT_NAME    = STARLINK-36448
OBJECT_ID      = 2026-003W
CENTER_NAME    = EARTH
REF_FRAME      = TEME
TIME_SYSTEM    = UTC
MEAN_ELEMENT_THEORY = SGP/SGP4

EPOCH          = 2026-02-07T20:00:03.000384
MEAN_MOTION    = 15.45598341
ECCENTRICITY   = .0001363
INCLINATION    = 42.9996
RA_OF_ASC_NODE = 36.0850
ARG_OF_PERICENTER = 260.2915
MEAN_ANOMALY   = 78.1615

EPHEMERIS_TYPE = 0
CLASSIFICATION_TYPE = U
NORAD_CAT_ID   = 67354
ELEMENT_SET_NO = 999
REV_AT_EPOCH   = 587
BSTAR          = -.46135E-1
MEAN_MOTION_DOT = -.2024979E-1
MEAN_MOTION_DDOT = 0

CCSDS_OMM_VERS = 2.0
CREATION_DATE  = 
ORIGINATOR     = 

OBJECT_NAME    = STARLINK-36477
OBJECT_ID      = 2026-003X
CENTER_NAME    = EARTH
REF_FRAME      = TEME
TIME_SYSTEM    = UTC
MEAN_ELEMENT_THEORY = SGP/SGP4

EPOCH          = 2026-02-07T20:00:03.000384
MEAN_MOTION    = 15.39987627
ECCENTRICITY   = .0001251
INCLINATION    = 43.0004
RA_OF_ASC_NODE = 36.1805
ARG_OF_PERICENTER = 255.2155
MEAN_ANOMALY   = 44.6642

EPHEMERIS_TYPE = 0
CLASSIFICATION_TYPE = U
NORAD_CAT_ID   = 67355
ELEMENT_SET_NO = 999
REV_AT_EPOCH   = 586
BSTAR          = -.55058E-1
MEAN_MOTION_DOT = -.1999888E-1
MEAN_MOTION_DDOT = 0

CCSDS_OMM_VERS = 2.0
CREATION_DATE  = 
ORIGINATOR     = 

OBJECT_NAME    = STARLINK-36429
OBJECT_ID      = 2026-003Y
CENTER_NAME    = EARTH
REF_FRAME      = TEME
TIME_SYSTEM    = UTC
MEAN_ELEMENT_THEORY = SGP/SGP4

EPOCH          = 2026-02-07T20:00:03.000384
MEAN_MOTION    = 15.40640871
ECCENTRICITY   = .0001169
INCLINATION    = 43.0005
RA_OF_ASC_NODE = 36.1629
ARG_OF_PERICENTER = 259.4167
MEAN_ANOMALY   = 47.7285

EPHEMERIS_TYPE = 0
CLASSIFICATION_TYPE = U
NORAD_CAT_ID   = 67356
ELEMENT_SET_NO = 999
REV_AT_EPOCH   = 586
BSTAR          = -.53788E-1
MEAN_MOTION_DOT = -.1997165E-1
MEAN_MOTION_DDOT = 0

CCSDS_OMM_VERS = 2.0
CREATION_DATE  = 
ORIGINATOR     = 

OBJECT_NAME    = STARLINK-36456
OBJECT_ID      = 2026-003Z
CENTER_NAME    = EARTH
REF_FRAME      = TEME
TIME_SYSTEM    = UTC
MEAN_ELEMENT_THEORY = SGP/SGP4

EPOCH          = 2026-02-07T09:13:26.953536
MEAN_MOTION    = 15.50124252
ECCENTRICITY   = .00030823
INCLINATION    = 42.9974
RA_OF_ASC_NODE = 38.6823
ARG_OF_PERICENTER = 335.8136
MEAN_ANOMALY   = 24.2579

EPHEMERIS_TYPE = 0
CLASSIFICATION_TYPE = U
NORAD_CAT_ID   = 67357
ELEMENT_SET_NO = 999
REV_AT_EPOCH   = 418
BSTAR          = .22403344E-2
MEAN_MOTION_DOT = .131185E-2
MEAN_MOTION_DDOT = 0

