STARLINK-36472          
1 67346U 26003N   26038.83336806 -.02003755  00000+0 -50773-1 0  9999
2 67346  43.0003  36.1749 0001292 255.3398  47.6237 15.42460730  5867
STARLINK-36420          
1 67347U 26003P   26038.83336806 -.02013811  00000+0 -45557-1 0  9998
2 67347  43.0003  36.1221 0001167 253.0934  70.7786 15.45784937  5873
STARLINK-36467          
1 67348U 26003Q   26038.45317274 -.00386258  00000+0 -77985-2 0  9992
2 67348  42.9984  38.3416 0002809 227.4154 132.6468 15.47138488  4198
STARLINK-36457          
1 67349U 26003R   26038.83336806 -.02037770  00000+0 -41409-1 0  9992
2 67349  43.0002  36.0975 0001580 267.4866  66.2526 15.48878550  5871
STARLINK-36475          
1 67350U 26003S   26038.38663829  .00091452  00000+0  15453-2 0  9996
2 67350  42.9966  38.7032 0000970  49.7663 310.3281 15.50601894  4183
STARLINK-36478          
1 67351U 26003T   26038.38628644  .00175381  00000+0  29198-2 0  9998
2 67351  43.0016  38.7006 0002095 268.1137  91.9483 15.50665364  4184
STARLINK-36479          
1 67352U 26003U   26038.83336806 -.00169681  00000+0 -29387-2 0  9993
2 67352  43.0001  36.0809 0001615 244.5666  95.9772 15.50681872  5877
STARLINK-36474          
1 67353U 26003V   26038.83336806 -.01998398  00000+0 -56947-1 0  9991
2 67353  43.0003  36.2075 0000988 264.4708  24.1786 15.38949779  5875
STARLINK-36448          
1 67354U 26003W   26038.83336806 -.02024979  00000+0 -46135-1 0  9996
2 67354  42.9996  36.0850 0001363 260.2915  78.1615 15.45598341  5879
STARLINK-36477          
1 67355U 26003X   26038.83336806 -.01999888  00000+0 -55058-1 0  9990
2 67355  43.0004  36.1805 0001251 255.2155  44.6642 15.39987627  5868
STARLINK-36429          
1 67356U 26003Y   26038.83336806 -.01997165  00000+0 -53788-1 0  9995
2 67356  43.0005  36.1629 0001169 259.4167  47.7285 15.40640871  5867
STARLINK-36456          
1 67357U 26003Z   26038.38433974  .00131185  00000+0  22403-2 0  9990
2 67357  42.9974  38.6823 0003082 335.8136  24.2579 15.50124252  4186
